BANDWAGON-2 OBJECT D    
1 62380U 24247D   26068.52261193  .00011259  00000+0  40119-3 0  9994
2 62380  44.9954 115.6710 0003488 351.1453   8.9368 15.29076102 67732
STARLINK-35303          
1 65860U 25223G   26068.88468308  .00031084  00000+0  10570-2 0  9996
2 65860  53.1601 293.4015 0000871 102.6986 257.4112 15.30208014 24232
